*******************************************************************************
Ephemeris / WWW_USER Mon Mar 10 14:31:37 2025 Pasadena, USA      / Horizons    
*******************************************************************************
Target body name: (2018 KH3)                      {source: JPL#10}
Center body name: Earth (399)                     {source: DE441}
Center-site name: Mauna Kea
*******************************************************************************
Start time      : A.D. 2019-Jan-16 04:13:00.0000 UT      
Stop  time      : A.D. 2019-Jan-16 16:49:00.0000 UT      
Step-size       : 1 minutes
*******************************************************************************
Target pole/equ : undefined
Target radii    : undefined                                                    
Center geodetic : 204.5278, 19.8260847, 4.21024   {E-lon(deg),Lat(deg),Alt(km)}
Center cylindric: 204.5278, 6006.35451, 2151.0229 {E-lon(deg),Dxy(km),Dz(km)}
Center pole/equ : ITRF93                          {East-longitude positive}
Center radii    : 6378.137, 6378.137, 6356.752 km {Equator_a, b, pole_c}       
Target primary  : Sun
Vis. interferer : MOON (R_eq= 1737.400) km        {source: DE441}
Rel. light bend : Sun                             {source: DE441}
Rel. lght bnd GM: 1.3271E+11 km^3/s^2                                          
Small-body perts: Yes                             {source: SB441-N16}
Atmos refraction: NO (AIRLESS)
RA format       : HMS
Time format     : CAL 
Calendar mode   : Mixed Julian/Gregorian
RTS-only print  : NO       
EOP file        : eop.250307.p250603                                           
EOP coverage    : DATA-BASED 1962-JAN-20 TO 2025-MAR-07. PREDICTS-> 2025-JUN-02
Units conversion: 1 au= 149597870.700 km, c= 299792.458 km/s, 1 day= 86400.0 s 
Table cut-offs 1: Elevation (-90.0deg=NO ),Airmass (>38.000=NO), Daylight (YES)
Table cut-offs 2: Solar elongation (  0.0,180.0=NO ),Local Hour Angle( 0.0=NO )
Table cut-offs 3: RA/DEC angular rate (     0.0=NO )                           
*******************************************************************************
Initial IAU76/J2000 heliocentric ecliptic osculating elements (au, days, deg.):
  EPOCH=  2458288.5 ! 2018-Jun-19.00 (TDB)         Residual RMS= .22282        
   EC= .960925581819226    QR= 3.698978437965829   TP= 2457875.4618278281      
   OM= 293.0370088641419   W=  320.1514802298502   IN= 46.86534913190896       
  Equivalent ICRF heliocentric cartesian coordinates (au, au/d):
   X= 3.123713088662113E+00  Y=-4.022617727101489E+00  Z=-9.776572180429732E-02
  VX= 7.160289219203867E-03 VY=-1.601856640773144E-03 VZ= 7.695430476273978E-03
Asteroid physical parameters (km, seconds, rotational period in hours):        
   GM= n.a.                RAD= n.a.               ROTPER= n.a.                
   H= 13.69                G= .150                 B-V= n.a.                   
                           ALBEDO= n.a.            STYP= n.a.                  
*******************************************************************************
 Date__(UT)__HR:MN     R.A._________(ICRF)_________DEC
******************************************************
$$SOE
 2019-Jan-16 16:31 N   20 58 08.715078 +09 24 24.21624
 2019-Jan-16 16:32 N   20 58 08.742598 +09 24 24.39170
 2019-Jan-16 16:33 N   20 58 08.770116 +09 24 24.56715
 2019-Jan-16 16:34 N   20 58 08.797633 +09 24 24.74261
 2019-Jan-16 16:35 N   20 58 08.825149 +09 24 24.91808
 2019-Jan-16 16:36 C   20 58 08.852663 +09 24 25.09354
 2019-Jan-16 16:37 C   20 58 08.880176 +09 24 25.26901
 2019-Jan-16 16:38 C   20 58 08.907687 +09 24 25.44448
 2019-Jan-16 16:39 C   20 58 08.935197 +09 24 25.61995
 2019-Jan-16 16:40 C   20 58 08.962706 +09 24 25.79542
 2019-Jan-16 16:41 C   20 58 08.990213 +09 24 25.97090
 2019-Jan-16 16:42 C   20 58 09.017719 +09 24 26.14638
 2019-Jan-16 16:43 C   20 58 09.045223 +09 24 26.32186
 2019-Jan-16 16:44 C   20 58 09.072726 +09 24 26.49735
 2019-Jan-16 16:45 C   20 58 09.100227 +09 24 26.67283
 2019-Jan-16 16:46 C   20 58 09.127727 +09 24 26.84832
 2019-Jan-16 16:47 C   20 58 09.155225 +09 24 27.02381
 2019-Jan-16 16:48 C   20 58 09.182722 +09 24 27.19931
 2019-Jan-16 16:49 C   20 58 09.210218 +09 24 27.37481
